{
    "links": {
        "self": "http://www.neowsapp.com/rest/v1/neo/3292767?api_key=iIulBulltgU6a56xZRHN4H3l9WmuAYTsLGpBGhQ2"
    },
    "id": "3292767",
    "neo_reference_id": "3292767",
    "name": "(2005 TP15)",
    "designation": "2005 TP15",
    "nasa_jpl_url": "http://ssd.jpl.nasa.gov/sbdb.cgi?sstr=3292767",
    "absolute_magnitude_h": 25.2,
    "estimated_diameter": {
        "kilometers": {
            "estimated_diameter_min": 0.0242412481,
            "estimated_diameter_max": 0.0542050786
        },
        "meters": {
            "estimated_diameter_min": 24.2412481101,
            "estimated_diameter_max": 54.2050786336
        },
        "miles": {
            "estimated_diameter_min": 0.0150628086,
            "estimated_diameter_max": 0.0336814639
        },
        "feet": {
            "estimated_diameter_min": 79.5316564495,
            "estimated_diameter_max": 177.8381901842
        }
    },
    "is_potentially_hazardous_asteroid": false,
    "close_approach_data": [
        {
            "close_approach_date": "2005-05-21",
            "close_approach_date_full": "2005-May-21 20:52",
            "epoch_date_close_approach": 1116708720000,
            "relative_velocity": {
                "kilometers_per_second": "6.8071621038",
                "kilometers_per_hour": "24505.7835735971",
                "miles_per_hour": "15226.9409099387"
            },
            "miss_distance": {
                "astronomical": "0.3626526038",
                "lunar": "141.0718628782",
                "kilometers": "54252057.078433906",
                "miles": "33710665.0842276628"
            },
            "orbiting_body": "Earth"
        },
        {
            "close_approach_date": "2005-09-30",
            "close_approach_date_full": "2005-Sep-30 16:44",
            "epoch_date_close_approach": 1128098640000,
            "relative_velocity": {
                "kilometers_per_second": "10.1864652227",
                "kilometers_per_hour": "36671.2748016682",
                "miles_per_hour": "22786.1040566254"
            },
            "miss_distance": {
                "astronomical": "0.0164827805",
                "lunar": "6.4118016145",
                "kilometers": "2465788.854477535",
                "miles": "1532170.146498583"
            },
            "orbiting_body": "Earth"
        }
    ],
    "orbital_data": {
        "orbit_id": "6",
        "orbit_determination_date": "2017-04-06 09:10:19",
        "first_observation_date": "2005-10-01",
        "last_observation_date": "2005-10-05",
        "data_arc_in_days": 4,
        "observations_used": 9,
        "orbit_uncertainty": "9",
        "minimum_orbit_intersection": ".00785132",
        "jupiter_tisserand_invariant": "4.815",
        "epoch_osculation": "2453647.5",
        "eccentricity": ".2805401364291959",
        "semi_major_axis": "1.343678721090656",
        "inclination": "14.88111697777553",
        "ascending_node_longitude": "187.1556249499652",
        "orbital_period": "568.907404486363",
        "perihelion_distance": ".9667229093588756",
        "perihelion_argument": "143.3305212989571",
        "aphelion_distance": "1.720634532822436",
        "perihelion_time": "2453612.398656082722",
        "mean_anomaly": "22.21184626983174",
        "mean_motion": ".6327919045543542",
        "equinox": "J2000",
        "orbit_class": {
            "orbit_class_type": "APO",
            "orbit_class_description": "Near-Earth asteroid orbits which cross the Earth’s orbit similar to that of 1862 Apollo",
            "orbit_class_range": "a (semi-major axis) > 1.0 AU; q (perihelion) < 1.017 AU"
        }
    },
    "is_sentry_object": false
}